IONOSFERA-M 4           
1 64877U 25155B   26188.48217346  .00000040  00000+0  38053-4 0  9996
2 64877  98.6034 149.7945 0001670 107.0296 253.1064 14.21492270 49288
MICROCARB               
1 64899U 25156A   26188.19443720  .00000489  00000+0  83982-4 0  9994
2 64899  98.0076 265.0088 0016989 196.3569 163.7093 14.72879090 50910
CO3D 3                  
1 64900U 25156B   26188.52688021  .00003320  00000+0  15646-3 0  9997
2 64900  97.4331 266.9275 0001816 101.1527 258.9912 15.20194972 52629
CO3D 4                  
1 64901U 25156C   26188.46120422  .00001413  00000+0  68358-4 0  9997
2 64901  97.4333 266.8628 0001194 172.1561 187.9693 15.20207431 52619
CO3D 2                  
1 64902U 25156D   26188.49368443  .00003235  00000+0  15246-3 0  9999
2 64902  97.4330 266.7937 0001385  90.1046 270.0348 15.20204723 52610
CO3D 1                  
1 64903U 25156E   26188.49383450  .00003397  00000+0  15996-3 0  9996
2 64903  97.4329 266.7939 0001331 101.2540 258.8845 15.20209594 52612
PRSC-S1                 
1 65055U 25164A   26188.41729747  .00002404  00000+0  17130-3 0  9999
2 65055  41.1290 173.8623 0005449 142.9122 217.2069 15.06595840 51481
SENTINEL-6B             
1 66514U 25264A   26188.15134700 -.00000049  00000+0  50778-4 0  9991
2 66514  66.0415  93.7141 0007890 268.8438  91.1673 12.80930114 29720
CAS500-3                
1 66655U 25274F   26188.24982566  .00001096  00000+0  12414-3 0  9995
2 66655  97.7440 115.8446 0006737  59.2457 300.9422 14.88371021 33130
CSG-3                   
1 67304U 26001A   26187.97961444  .00000256  00000+0  38760-4 0  9997
2 67304  97.8893  11.2950 0001484  94.2500 265.8883 14.82148038 27391
PRSC-E03                
1 68835U 26092A   26188.53407079  .00002149  00000+0  14885-3 0  9993
2 68835  38.0022 329.6908 0004144 202.6726 157.3853 15.06784103 11023
CAS500-2                
1 69013U 26100AK  26187.69510725  .00004793  00000+0  22011-3 0  9998
2 69013  97.3874  85.1838 0008414 327.2220  32.8492 15.20835464  9776
