OBJECT_NAME,OBJECT_ID,EPOCH,MEAN_MOTION,ECCENTRICITY,INCLINATION,RA_OF_ASC_NODE,ARG_OF_PERICENTER,MEAN_ANOMALY,EPHEMERIS_TYPE,CLASSIFICATION_TYPE,NORAD_CAT_ID,ELEMENT_SET_NO,REV_AT_EPOCH,BSTAR,MEAN_MOTION_DOT,MEAN_MOTION_DDOT
IONOSFERA-M 4,2025-155B,2026-07-07T11:34:19.786944,14.21492270,.000167,98.6034,149.7945,107.0296,253.1064,0,U,64877,999,4928,.38053E-4,.4E-6,0
MICROCARB,2025-156A,2026-07-07T04:39:59.374080,14.72879090,.0016989,98.0076,265.0088,196.3569,163.7093,0,U,64899,999,5091,.83982E-4,.489E-5,0
CO3D 3,2025-156B,2026-07-07T12:38:42.450144,15.20194972,.0001816,97.4331,266.9275,101.1527,258.9912,0,U,64900,999,5262,.15646E-3,.332E-4,0
CO3D 4,2025-156C,2026-07-07T11:04:08.044608,15.20207431,.0001194,97.4333,266.8628,172.1561,187.9693,0,U,64901,999,5261,.68358E-4,.1413E-4,0
CO3D 2,2025-156D,2026-07-07T11:50:54.334752,15.20204723,.0001385,97.4330,266.7937,90.1046,270.0348,0,U,64902,999,5261,.15246E-3,.3235E-4,0
CO3D 1,2025-156E,2026-07-07T11:51:07.300800,15.20209594,.0001331,97.4329,266.7939,101.2540,258.8845,0,U,64903,999,5261,.15996E-3,.3397E-4,0
PRSC-S1,2025-164A,2026-07-07T10:00:54.501408,15.06595840,.0005449,41.1290,173.8623,142.9122,217.2069,0,U,65055,999,5148,.1713E-3,.2404E-4,0
SENTINEL-6B,2025-264A,2026-07-07T03:37:56.380800,12.80930114,.000789,66.0415,93.7141,268.8438,91.1673,0,U,66514,999,2972,.50778E-4,-.49E-6,0
CAS500-3,2025-274F,2026-07-07T05:59:44.937024,14.88371021,.0006737,97.7440,115.8446,59.2457,300.9422,0,U,66655,999,3313,.12414E-3,.1096E-4,0
CSG-3,2026-001A,2026-07-06T23:30:38.687616,14.82148038,.0001484,97.8893,11.2950,94.2500,265.8883,0,U,67304,999,2739,.3876E-4,.256E-5,0
PRSC-E03,2026-092A,2026-07-07T12:49:03.716256,15.06784103,.0004144,38.0022,329.6908,202.6726,157.3853,0,U,68835,999,1102,.14885E-3,.2149E-4,0
CAS500-2,2026-100AK,2026-07-06T16:40:57.266400,15.20835464,.0008414,97.3874,85.1838,327.2220,32.8492,0,U,69013,999,977,.22011E-3,.4793E-4,0
